CYGNUS NG-23            
1 65616U 25208A   25353.05456139  .00006809  00000+0  12867-3 0  9991
2 65616  51.6316 111.2076 0003176 269.7772  90.2853 15.49660414   224
DRAGONFLY               
1 65729U 98067XH  25352.58353461  .00166206  00000+0  11293-2 0  9999
2 65729  51.6249 105.7955 0007166 314.6867  45.3548 15.73865471 14084
1998-067XK              
1 65731U 98067XK  25352.60392310  .00090673  00000+0  83588-3 0  9992
2 65731  51.6292 107.4546 0004791 283.3796  76.6665 15.66848038 14061
RSP-03                  
1 65732U 98067XL  25353.29741848  .00107626  00000+0  86015-3 0  9998
2 65732  51.6265 103.0728 0005659 294.2748  65.7658 15.70252106 14193
GHS-01                  
1 65733U 98067XM  25352.90352596  .00206465  00000+0  11904-2 0  9999
2 65733  51.6277 103.4385 0007989 320.4925  39.5492 15.77485683 14153
YOTSUBA-KULOVER         
1 65941U 98067XN  25353.31121070  .00052969  00000+0  63693-3 0  9998
2 65941  51.6289 106.9268 0001757 319.8070  40.2793 15.60314479 10880
BOTAN                   
1 65942U 98067XP  25353.30133908  .00085341  00000+0  87502-3 0  9996
2 65942  51.6281 106.1105 0002892 295.3483  64.7212 15.64217081 10895
E-KAGAKU-1              
1 65943U 98067XQ  25352.35057484  .00070368  00000+0  84620-3 0  9996
2 65943  51.6302 111.7666 0001345 249.8249 110.2600 15.60193795 10732
HRC MONOBLOCK CAMERA    
1 66052U 98067XR  25352.95182665  .00030942  00000+0  46534-3 0  9990
2 66052  51.6297 110.5221 0002633 211.9232 148.1600 15.54565744  9800
HTV-X1                  
1 66174U 25241A   25353.05456139  .00006809  00000+0  12867-3 0  9998
2 66174  51.6316 111.2076 0003176 269.7772  90.2853 15.49660414   516
SZ-21 MODULE            
1 66515U 25246C   25353.24981400  .00021457  00000+0  23433-3 0  9994
2 66515  41.4773 336.3242 0005734 295.0263  64.9981 15.62811821  5467
SHENZHOU-22             
1 66645U 25272A   25353.24747982  .00020088  00000+0  24976-3 0  9994
2 66645  41.4684 337.1916 0007726  88.0762 272.0962 15.59458428263571
