CCSDS_OMM_VERS = 2.0
CREATION_DATE  = 
ORIGINATOR     = 

OBJECT_NAME    = CYGNUS NG-23
OBJECT_ID      = 2025-208A
CENTER_NAME    = EARTH
REF_FRAME      = TEME
TIME_SYSTEM    = UTC
MEAN_ELEMENT_THEORY = SGP/SGP4

EPOCH          = 2025-12-19T01:18:34.104096
MEAN_MOTION    = 15.49660414
ECCENTRICITY   = .00031768
INCLINATION    = 51.6316
RA_OF_ASC_NODE = 111.2076
ARG_OF_PERICENTER = 269.7772
MEAN_ANOMALY   = 90.2853

EPHEMERIS_TYPE = 0
CLASSIFICATION_TYPE = U
NORAD_CAT_ID   = 65616
ELEMENT_SET_NO = 999
REV_AT_EPOCH   = 22
BSTAR          = .12867135E-3
MEAN_MOTION_DOT = .6809E-4
MEAN_MOTION_DDOT = 0

CCSDS_OMM_VERS = 2.0
CREATION_DATE  = 
ORIGINATOR     = 

OBJECT_NAME    = DRAGONFLY
OBJECT_ID      = 1998-067XH
CENTER_NAME    = EARTH
REF_FRAME      = TEME
TIME_SYSTEM    = UTC
MEAN_ELEMENT_THEORY = SGP/SGP4

EPOCH          = 2025-12-18T14:00:17.390304
MEAN_MOTION    = 15.73865471
ECCENTRICITY   = .0007166
INCLINATION    = 51.6249
RA_OF_ASC_NODE = 105.7955
ARG_OF_PERICENTER = 314.6867
MEAN_ANOMALY   = 45.3548

EPHEMERIS_TYPE = 0
CLASSIFICATION_TYPE = U
NORAD_CAT_ID   = 65729
ELEMENT_SET_NO = 999
REV_AT_EPOCH   = 1408
BSTAR          = .1129306E-2
MEAN_MOTION_DOT = .166206E-2
MEAN_MOTION_DDOT = 0

CCSDS_OMM_VERS = 2.0
CREATION_DATE  = 
ORIGINATOR     = 

OBJECT_NAME    = 1998-067XK
OBJECT_ID      = 1998-067XK
CENTER_NAME    = EARTH
REF_FRAME      = TEME
TIME_SYSTEM    = UTC
MEAN_ELEMENT_THEORY = SGP/SGP4

EPOCH          = 2025-12-18T14:29:38.955840
MEAN_MOTION    = 15.66848038
ECCENTRICITY   = .0004791
INCLINATION    = 51.6292
RA_OF_ASC_NODE = 107.4546
ARG_OF_PERICENTER = 283.3796
MEAN_ANOMALY   = 76.6665

EPHEMERIS_TYPE = 0
CLASSIFICATION_TYPE = U
NORAD_CAT_ID   = 65731
ELEMENT_SET_NO = 999
REV_AT_EPOCH   = 1406
BSTAR          = .83587979E-3
MEAN_MOTION_DOT = .90673E-3
MEAN_MOTION_DDOT = 0

CCSDS_OMM_VERS = 2.0
CREATION_DATE  = 
ORIGINATOR     = 

OBJECT_NAME    = RSP-03
OBJECT_ID      = 1998-067XL
CENTER_NAME    = EARTH
REF_FRAME      = TEME
TIME_SYSTEM    = UTC
MEAN_ELEMENT_THEORY = SGP/SGP4

EPOCH          = 2025-12-19T07:08:16.956672
MEAN_MOTION    = 15.70252106
ECCENTRICITY   = .00056592
INCLINATION    = 51.6265
RA_OF_ASC_NODE = 103.0728
ARG_OF_PERICENTER = 294.2748
MEAN_ANOMALY   = 65.7658

EPHEMERIS_TYPE = 0
CLASSIFICATION_TYPE = U
NORAD_CAT_ID   = 65732
ELEMENT_SET_NO = 999
REV_AT_EPOCH   = 1419
BSTAR          = .86015321E-3
MEAN_MOTION_DOT = .107626E-2
MEAN_MOTION_DDOT = 0

CCSDS_OMM_VERS = 2.0
CREATION_DATE  = 
ORIGINATOR     = 

OBJECT_NAME    = GHS-01
OBJECT_ID      = 1998-067XM
CENTER_NAME    = EARTH
REF_FRAME      = TEME
TIME_SYSTEM    = UTC
MEAN_ELEMENT_THEORY = SGP/SGP4

EPOCH          = 2025-12-18T21:41:04.642944
MEAN_MOTION    = 15.77485683
ECCENTRICITY   = .00079897
INCLINATION    = 51.6277
RA_OF_ASC_NODE = 103.4385
ARG_OF_PERICENTER = 320.4925
MEAN_ANOMALY   = 39.5492

EPHEMERIS_TYPE = 0
CLASSIFICATION_TYPE = U
NORAD_CAT_ID   = 65733
ELEMENT_SET_NO = 999
REV_AT_EPOCH   = 1415
BSTAR          = .1190379E-2
MEAN_MOTION_DOT = .206465E-2
MEAN_MOTION_DDOT = 0

CCSDS_OMM_VERS = 2.0
CREATION_DATE  = 
ORIGINATOR     = 

OBJECT_NAME    = YOTSUBA-KULOVER
OBJECT_ID      = 1998-067XN
CENTER_NAME    = EARTH
REF_FRAME      = TEME
TIME_SYSTEM    = UTC
MEAN_ELEMENT_THEORY = SGP/SGP4

EPOCH          = 2025-12-19T07:28:08.604480
MEAN_MOTION    = 15.60314479
ECCENTRICITY   = .00017577
INCLINATION    = 51.6289
RA_OF_ASC_NODE = 106.9268
ARG_OF_PERICENTER = 319.8070
MEAN_ANOMALY   = 40.2793

EPHEMERIS_TYPE = 0
CLASSIFICATION_TYPE = U
NORAD_CAT_ID   = 65941
ELEMENT_SET_NO = 999
REV_AT_EPOCH   = 1088
BSTAR          = .63692878E-3
MEAN_MOTION_DOT = .52969E-3
MEAN_MOTION_DDOT = 0

CCSDS_OMM_VERS = 2.0
CREATION_DATE  = 
ORIGINATOR     = 

OBJECT_NAME    = BOTAN
OBJECT_ID      = 1998-067XP
CENTER_NAME    = EARTH
REF_FRAME      = TEME
TIME_SYSTEM    = UTC
MEAN_ELEMENT_THEORY = SGP/SGP4

EPOCH          = 2025-12-19T07:13:55.696512
MEAN_MOTION    = 15.64217081
ECCENTRICITY   = .0002892
INCLINATION    = 51.6281
RA_OF_ASC_NODE = 106.1105
ARG_OF_PERICENTER = 295.3483
MEAN_ANOMALY   = 64.7212

EPHEMERIS_TYPE = 0
CLASSIFICATION_TYPE = U
NORAD_CAT_ID   = 65942
ELEMENT_SET_NO = 999
REV_AT_EPOCH   = 1089
BSTAR          = .87501983E-3
MEAN_MOTION_DOT = .85341E-3
MEAN_MOTION_DDOT = 0

CCSDS_OMM_VERS = 2.0
CREATION_DATE  = 
ORIGINATOR     = 

OBJECT_NAME    = E-KAGAKU-1
OBJECT_ID      = 1998-067XQ
CENTER_NAME    = EARTH
REF_FRAME      = TEME
TIME_SYSTEM    = UTC
MEAN_ELEMENT_THEORY = SGP/SGP4

EPOCH          = 2025-12-18T08:24:49.666176
MEAN_MOTION    = 15.60193795
ECCENTRICITY   = .00013451
INCLINATION    = 51.6302
RA_OF_ASC_NODE = 111.7666
ARG_OF_PERICENTER = 249.8249
MEAN_ANOMALY   = 110.2600

EPHEMERIS_TYPE = 0
CLASSIFICATION_TYPE = U
NORAD_CAT_ID   = 65943
ELEMENT_SET_NO = 999
REV_AT_EPOCH   = 1073
BSTAR          = .84619625E-3
MEAN_MOTION_DOT = .70368E-3
MEAN_MOTION_DDOT = 0

CCSDS_OMM_VERS = 2.0
CREATION_DATE  = 
ORIGINATOR     = 

OBJECT_NAME    = HRC MONOBLOCK CAMERA
OBJECT_ID      = 1998-067XR
CENTER_NAME    = EARTH
REF_FRAME      = TEME
TIME_SYSTEM    = UTC
MEAN_ELEMENT_THEORY = SGP/SGP4

EPOCH          = 2025-12-18T22:50:37.822560
MEAN_MOTION    = 15.54565744
ECCENTRICITY   = .00026331
INCLINATION    = 51.6297
RA_OF_ASC_NODE = 110.5221
ARG_OF_PERICENTER = 211.9232
MEAN_ANOMALY   = 148.1600

EPHEMERIS_TYPE = 0
CLASSIFICATION_TYPE = U
NORAD_CAT_ID   = 66052
ELEMENT_SET_NO = 999
REV_AT_EPOCH   = 980
BSTAR          = .46533518E-3
MEAN_MOTION_DOT = .30942E-3
MEAN_MOTION_DDOT = 0

CCSDS_OMM_VERS = 2.0
CREATION_DATE  = 
ORIGINATOR     = 

OBJECT_NAME    = HTV-X1
OBJECT_ID      = 2025-241A
CENTER_NAME    = EARTH
REF_FRAME      = TEME
TIME_SYSTEM    = UTC
MEAN_ELEMENT_THEORY = SGP/SGP4

EPOCH          = 2025-12-19T01:18:34.104096
MEAN_MOTION    = 15.49660414
ECCENTRICITY   = .00031768
INCLINATION    = 51.6316
RA_OF_ASC_NODE = 111.2076
ARG_OF_PERICENTER = 269.7772
MEAN_ANOMALY   = 90.2853

EPHEMERIS_TYPE = 0
CLASSIFICATION_TYPE = U
NORAD_CAT_ID   = 66174
ELEMENT_SET_NO = 999
REV_AT_EPOCH   = 51
BSTAR          = .12867135E-3
MEAN_MOTION_DOT = .6809E-4
MEAN_MOTION_DDOT = 0

CCSDS_OMM_VERS = 2.0
CREATION_DATE  = 
ORIGINATOR     = 

OBJECT_NAME    = SZ-21 MODULE
OBJECT_ID      = 2025-246C
CENTER_NAME    = EARTH
REF_FRAME      = TEME
TIME_SYSTEM    = UTC
MEAN_ELEMENT_THEORY = SGP/SGP4

EPOCH          = 2025-12-19T05:59:43.929600
MEAN_MOTION    = 15.62811821
ECCENTRICITY   = .0005734
INCLINATION    = 41.4773
RA_OF_ASC_NODE = 336.3242
ARG_OF_PERICENTER = 295.0263
MEAN_ANOMALY   = 64.9981

EPHEMERIS_TYPE = 0
CLASSIFICATION_TYPE = U
NORAD_CAT_ID   = 66515
ELEMENT_SET_NO = 999
REV_AT_EPOCH   = 546
BSTAR          = .23433349E-3
MEAN_MOTION_DOT = .21457E-3
MEAN_MOTION_DDOT = 0

CCSDS_OMM_VERS = 2.0
CREATION_DATE  = 
ORIGINATOR     = 

OBJECT_NAME    = SHENZHOU-22
OBJECT_ID      = 2025-272A
CENTER_NAME    = EARTH
REF_FRAME      = TEME
TIME_SYSTEM    = UTC
MEAN_ELEMENT_THEORY = SGP/SGP4

EPOCH          = 2025-12-19T05:56:22.256448
MEAN_MOTION    = 15.59458428
ECCENTRICITY   = .00077261
INCLINATION    = 41.4684
RA_OF_ASC_NODE = 337.1916
ARG_OF_PERICENTER = 88.0762
MEAN_ANOMALY   = 272.0962

EPHEMERIS_TYPE = 0
CLASSIFICATION_TYPE = U
NORAD_CAT_ID   = 66645
ELEMENT_SET_NO = 999
REV_AT_EPOCH   = 26357
BSTAR          = .24976186E-3
MEAN_MOTION_DOT = .20088E-3
MEAN_MOTION_DDOT = 0

